OBJECT_NAME,OBJECT_ID,EPOCH,MEAN_MOTION,ECCENTRICITY,INCLINATION,RA_OF_ASC_NODE,ARG_OF_PERICENTER,MEAN_ANOMALY,EPHEMERIS_TYPE,CLASSIFICATION_TYPE,NORAD_CAT_ID,ELEMENT_SET_NO,REV_AT_EPOCH,BSTAR,MEAN_MOTION_DOT,MEAN_MOTION_DDOT
JCSAT-3A,2006-033A,2026-07-01T04:22:21.709344,1.00269840,.0002518,0.0126,331.1816,138.5185,3.1179,0,U,29272,999,4788,0,-.334E-5,0
KOREASAT 5 (MUGUNGWHA 5),2006-034A,2026-07-01T01:11:38.596128,1.00270040,.0002001,1.8191,82.8326,56.1906,271.0491,0,U,29349,999,4145,0,-.349E-5,0
DIRECTV 9S,2006-043A,2026-07-01T03:55:36.298848,1.00271753,.0005423,2.4550,80.7446,22.5816,133.5963,0,U,29494,999,5152,0,-.105E-5,0
OPTUS D1,2006-043B,2026-07-01T02:46:26.492160,1.00270166,.0003667,3.0688,79.4917,13.5757,19.6652,0,U,29495,999,7226,0,-.176E-5,0
BADR-4,2006-051A,2026-07-01T03:55:39.270144,1.00270517,.000534,2.0390,80.9822,17.5319,274.0544,0,U,29526,999,5140,0,.165E-5,0
WILDBLUE-1,2006-054A,2026-07-01T04:20:38.666976,1.00271395,.0001704,2.8373,80.3150,19.1748,133.6906,0,U,29643,999,5393,0,-.41E-6,0
SKYNET 5A,2007-007B,2026-07-01T02:30:20.534976,1.00269847,.0003748,5.3349,73.5725,31.8814,306.4951,0,U,30794,999,7083,0,-.264E-5,0
ANIK F3,2007-009A,2026-07-01T05:03:38.627136,1.00271238,.0002893,1.2320,83.6989,14.2732,138.4950,0,U,31102,999,4670,0,.9E-7,0
ASTRA 1L,2007-016A,2026-07-01T02:10:56.909280,1.00272167,.0005695,1.3559,81.4849,20.7595,185.1508,0,U,31306,999,4512,0,-.175E-5,0
GALAXY 17 (G-17),2007-016B,2026-07-01T03:21:35.714016,1.00271663,.0004058,3.0052,79.7325,18.9717,145.8835,0,U,31307,999,6994,0,-.198E-5,0
INTELSAT 11 (IS-11),2007-044B,2026-07-01T04:04:08.454720,0.99047802,.0003373,3.5999,78.5074,87.3032,238.7462,0,U,32253,999,6858,0,.91E-6,0
WGS F1 (USA 195),2007-046A,2026-07-01T03:24:52.622208,1.00270739,.0000179,0.0242,74.4218,39.1393,174.3702,0,U,32258,999,5247,0,-.257E-5,0
SKYNET 5B,2007-056B,2026-06-30T22:21:38.848896,1.00272853,.0003445,5.2863,73.3406,30.3657,175.7795,0,U,32294,999,6833,0,.147E-5,0
ASTRA 4A,2007-057A,2026-07-01T03:47:10.082112,1.00272226,.0002647,0.0119,354.3083,107.3976,239.0966,0,U,32299,999,5178,0,.43E-6,0
HORIZONS-2,2007-063B,2026-07-01T04:39:52.925184,1.00269817,.0004106,2.6363,80.4626,11.3403,183.5985,0,U,32388,999,6795,0,-.245E-5,0
THURAYA-3,2008-001A,2026-07-01T04:04:15.943008,1.00141022,.0000704,6.0114,35.8089,136.4533,233.3662,0,U,32404,999,6763,0,.27E-6,0
THOR 5,2008-006A,2026-07-01T03:45:32.737824,1.00272061,.0002746,0.0394,239.6672,224.9106,230.2666,0,U,32487,999,6745,0,.1E-7,0
AMC-14,2008-011A,2026-07-01T02:23:21.206400,1.00420017,.0040537,24.0263,20.3523,7.5512,358.3870,0,U,32708,999,6831,0,-.107E-5,0
DIRECTV 11,2008-013A,2026-06-30T14:20:21.870240,1.00269308,.00003472,0.0118,261.6721,164.8959,328.0030,0,U,32729,999,4572,0,-.115E-5,0
ICO G1,2008-016A,2026-06-30T03:22:11.479296,1.00271083,.00022428,5.5315,36.1013,54.5926,145.2015,0,U,32763,999,6667,0,-.165E-5,0
VINASAT-1,2008-018A,2026-06-29T16:35:38.616288,1.00271427,.0001615,0.0155,326.6573,139.2527,192.7053,0,U,32767,999,6671,0,-.317E-5,0
STAR ONE C2,2008-018B,2026-07-01T00:01:58.868256,1.00269387,.000304,1.2744,82.3515,30.4040,101.7777,0,U,32768,999,6679,0,-.267E-5,0
AMOS-3,2008-022A,2026-07-01T03:59:53.863296,1.00484197,.0002711,0.4897,86.0496,69.0799,233.4810,0,U,32794,999,8247,0,.99E-6,0
GALAXY 18 (G-18),2008-024A,2026-07-01T05:03:38.627136,1.00271897,.0003209,0.0180,36.4655,67.8676,127.8427,0,U,32951,999,4599,0,.36E-6,0
ZHONGXING-9,2008-028A,2026-07-01T02:29:28.120416,1.00270099,.0004017,0.8037,85.1957,2.2846,321.4244,0,U,33051,999,6617,0,-.238E-5,0
SKYNET 5C,2008-030A,2026-07-01T03:40:40.704096,1.00271503,.0004477,3.8228,76.8810,30.8452,208.8634,0,U,33055,999,6609,0,-.132E-5,0
TURKSAT 3A,2008-030B,2026-07-01T03:57:46.564992,1.00271072,.0005426,0.0439,74.8348,5.6597,300.1588,0,U,33056,999,5249,0,.157E-5,0
ECHOSTAR 11,2008-035A,2026-07-01T04:21:38.562048,1.00272235,.0002643,1.0396,84.0407,6.0370,144.7705,0,U,33207,999,5135,0,-.48E-6,0
SUPERBIRD-C2,2008-038A,2026-07-01T04:24:21.515904,1.00270782,.0006548,2.3953,81.1003,31.7491,8.4835,0,U,33274,999,10587,0,-.298E-5,0
INMARSAT 4-F3,2008-039A,2026-07-01T04:55:38.682048,1.00272433,.0002586,4.3048,31.6615,71.7096,151.8000,0,U,33278,999,4668,0,-.132E-5,0
NIMIQ 4,2008-044A,2026-07-01T03:22:05.667168,1.00267368,.0001857,0.0372,59.3302,44.8624,143.5738,0,U,33373,999,6512,0,0,0
GALAXY 19 (G-19),2008-045A,2026-07-01T04:25:28.481952,1.00271803,.000294,0.0529,253.4083,220.5426,134.6562,0,U,33376,999,6504,0,-.129E-5,0
