JCSAT-3A                
1 29272U 06033A   26182.18219571 -.00000334  00000+0  00000+0 0  9996
2 29272   0.0126 331.1816 0002518 138.5185   3.1179  1.00269840 47881
KOREASAT 5 (MUGUNGWHA 5)
1 29349U 06034A   26182.04975227 -.00000349  00000+0  00000+0 0  9990
2 29349   1.8191  82.8326 0002001  56.1906 271.0491  1.00270040 41450
DIRECTV 9S              
1 29494U 06043A   26182.16361457 -.00000105  00000+0  00000+0 0  9998
2 29494   2.4550  80.7446 0005423  22.5816 133.5963  1.00271753 51522
OPTUS D1                
1 29495U 06043B   26182.11558440 -.00000176  00000+0  00000+0 0  9992
2 29495   3.0688  79.4917 0003667  13.5757  19.6652  1.00270166 72262
BADR-4                  
1 29526U 06051A   26182.16364896  .00000165  00000+0  00000+0 0  9998
2 29526   2.0390  80.9822 0005340  17.5319 274.0544  1.00270517 51406
WILDBLUE-1              
1 29643U 06054A   26182.18100309 -.00000041  00000+0  00000+0 0  9994
2 29643   2.8373  80.3150 0001704  19.1748 133.6906  1.00271395 53934
SKYNET 5A               
1 30794U 07007B   26182.10440434 -.00000264  00000+0  00000+0 0  9997
2 30794   5.3349  73.5725 0003748  31.8814 306.4951  1.00269847 70838
ANIK F3                 
1 31102U 07009A   26182.21086374  .00000009  00000+0  00000+0 0  9990
2 31102   1.2320  83.6989 0002893  14.2732 138.4950  1.00271238 46702
ASTRA 1L                
1 31306U 07016A   26182.09093645 -.00000175  00000+0  00000+0 0  9994
2 31306   1.3559  81.4849 0005695  20.7595 185.1508  1.00272167 45121
GALAXY 17 (G-17)        
1 31307U 07016B   26182.13999669 -.00000198  00000+0  00000+0 0  9996
2 31307   3.0052  79.7325 0004058  18.9717 145.8835  1.00271663 69947
INTELSAT 11 (IS-11)     
1 32253U 07044B   26182.16954230  .00000091  00000+0  00000+0 0  9997
2 32253   3.5999  78.5074 0003373  87.3032 238.7462  0.99047802 68580
WGS F1 (USA 195)        
1 32258U 07046A   26182.14227572 -.00000257  00000+0  00000+0 0  9999
2 32258   0.0242  74.4218 0000179  39.1393 174.3702  1.00270739 52472
SKYNET 5B               
1 32294U 07056B   26181.93169964  .00000147  00000+0  00000+0 0  9993
2 32294   5.2863  73.3406 0003445  30.3657 175.7795  1.00272853 68338
ASTRA 4A                
1 32299U 07057A   26182.15775558  .00000043  00000+0  00000+0 0  9991
2 32299   0.0119 354.3083 0002647 107.3976 239.0966  1.00272226 51784
HORIZONS-2              
1 32388U 07063B   26182.19436256 -.00000245  00000+0  00000+0 0  9995
2 32388   2.6363  80.4626 0004106  11.3403 183.5985  1.00269817 67955
THURAYA-3               
1 32404U 08001A   26182.16962897  .00000027  00000+0  00000+0 0  9996
2 32404   6.0114  35.8089 0000704 136.4533 233.3662  1.00141022 67634
THOR 5                  
1 32487U 08006A   26182.15662891  .00000001  00000+0  00000+0 0  9994
2 32487   0.0394 239.6672 0002746 224.9106 230.2666  1.00272061 67456
AMC-14                  
1 32708U 08011A   26182.09955100 -.00000107  00000+0  00000+0 0  9995
2 32708  24.0263  20.3523 0040537   7.5512 358.3870  1.00420017 68310
DIRECTV 11              
1 32729U 08013A   26181.59747535 -.00000115  00000+0  00000+0 0  9994
2 32729   0.0118 261.6721 0000347 164.8959 328.0030  1.00269308 45729
ICO G1                  
1 32763U 08016A   26181.14041064 -.00000165  00000+0  00000+0 0  9995
2 32763   5.5315  36.1013 0002242  54.5926 145.2015  1.00271083 66672
VINASAT-1               
1 32767U 08018A   26180.69141917 -.00000317  00000+0  00000+0 0  9997
2 32767   0.0155 326.6573 0001615 139.2527 192.7053  1.00271427 66713
STAR ONE C2             
1 32768U 08018B   26182.00137579 -.00000267  00000+0  00000+0 0  9998
2 32768   1.2744  82.3515 0003040  30.4040 101.7777  1.00269387 66792
AMOS-3                  
1 32794U 08022A   26182.16659564  .00000099  00000+0  00000+0 0  9994
2 32794   0.4897  86.0496 0002711  69.0799 233.4810  1.00484197 82475
GALAXY 18 (G-18)        
1 32951U 08024A   26182.21086374  .00000036  00000+0  00000+0 0  9991
2 32951   0.0180  36.4655 0003209  67.8676 127.8427  1.00271897 45997
ZHONGXING-9             
1 33051U 08028A   26182.10379769 -.00000238  00000+0  00000+0 0  9993
2 33051   0.8037  85.1957 0004017   2.2846 321.4244  1.00270099 66179
SKYNET 5C               
1 33055U 08030A   26182.15324889 -.00000132  00000+0  00000+0 0  9991
2 33055   3.8228  76.8810 0004477  30.8452 208.8634  1.00271503 66096
TURKSAT 3A              
1 33056U 08030B   26182.16512228  .00000157  00000+0  00000+0 0  9995
2 33056   0.0439  74.8348 0005426   5.6597 300.1588  1.00271072 52493
ECHOSTAR 11             
1 33207U 08035A   26182.18169632 -.00000048  00000+0  00000+0 0  9997
2 33207   1.0396  84.0407 0002643   6.0370 144.7705  1.00272235 51354
SUPERBIRD-C2            
1 33274U 08038A   26182.18358236 -.00000298  00000+0  00000+0 0  9991
2 33274   2.3953  81.1003 0006548  31.7491   8.4835  1.00270782105870
INMARSAT 4-F3           
1 33278U 08039A   26182.20530882 -.00000132  00000+0  00000+0 0  9995
2 33278   4.3048  31.6615 0002586  71.7096 151.8000  1.00272433 46688
NIMIQ 4                 
1 33373U 08044A   26182.14034337  .00000000  00000+0  00000+0 0  9997
2 33373   0.0372  59.3302 0001857  44.8624 143.5738  1.00267368 65122
GALAXY 19 (G-19)        
1 33376U 08045A   26182.18435743 -.00000129  00000+0  00000+0 0  9994
2 33376   0.0529 253.4083 0002940 220.5426 134.6562  1.00271803 65045
